[
    {
        "Altitude(m)": 706857.1318941505,
        "Argument of Periapsis(deg)": 0.009112096949301655,
        "Eccentricity": 0.0,
        "Inclination(deg)": 45.0,
        "Latitude(deg)": 43.15096930409098,
        "Longitude(deg)": -136.79781732389037,
        "Mean Anomaly(deg)": 74.68107331798467,
        "RAAN(deg)": 254.99139844683344,
        "Satellite Name": "Constellation 1 1126",
        "Satellite Number": 1126,
        "Semi-Major Axis(m)": 7083131.272910544,
        "Time(s)": 152
    },
    {
        "Altitude(m)": 706860.5969308775,
        "Argument of Periapsis(deg)": 0.009172044955547059,
        "Eccentricity": 0.0,
        "Inclination(deg)": 45.0,
        "Latitude(deg)": 43.166489607197875,
        "Longitude(deg)": -136.7216280530113,
        "Mean Anomaly(deg)": 74.7417744582345,
        "RAAN(deg)": 254.9913418576679,
        "Satellite Name": "Constellation 1 1126",
        "Satellite Number": 1126,
        "Semi-Major Axis(m)": 7083131.272910544,
        "Time(s)": 153
    },
    {
        "Altitude(m)": 706864.0499593901,
        "Argument of Periapsis(deg)": 0.009231992961792466,
        "Eccentricity": 0.0,
        "Inclination(deg)": 45.0,
        "Latitude(deg)": 43.18195350773155,
        "Longitude(deg)": -136.64539821693214,
        "Mean Anomaly(deg)": 74.80247559848448,
        "RAAN(deg)": 254.99128526850228,
        "Satellite Name": "Constellation 1 1126",
        "Satellite Number": 1126,
        "Semi-Major Axis(m)": 7083131.272910544,
        "Time(s)": 154
    },
    {
        "Altitude(m)": 706867.4909592682,
        "Argument of Periapsis(deg)": 0.009291940968037872,
        "Eccentricity": 0.0,
        "Inclination(deg)": 45.0,
        "Latitude(deg)": 43.197360947301405,
        "Longitude(deg)": -136.56912792107414,
        "Mean Anomaly(deg)": 74.86317673873432,
        "RAAN(deg)": 254.99122867933673,
        "Satellite Name": "Constellation 1 1126",
        "Satellite Number": 1126,
        "Semi-Major Axis(m)": 7083131.272910544,
        "Time(s)": 155
    },
    {
        "Altitude(m)": 706870.9199101902,
        "Argument of Periapsis(deg)": 0.009351888974283276,
        "Eccentricity": 0.0,
        "Inclination(deg)": 45.0,
        "Latitude(deg)": 43.21271186765561,
        "Longitude(deg)": -136.49281743951732,
        "Mean Anomaly(deg)": 74.92387787898426,
        "RAAN(deg)": 254.99117209017118,
        "Satellite Name": "Constellation 1 1126",
        "Satellite Number": 1126,
        "Semi-Major Axis(m)": 7083131.272910544,
        "Time(s)": 156
    },
    {
        "Altitude(m)": 706874.3367918881,
        "Argument of Periapsis(deg)": 0.00941183698052868,
        "Eccentricity": 0.0,
        "Inclination(deg)": 45.0,
        "Latitude(deg)": 43.228006210680824,
        "Longitude(deg)": -136.41646654261396,
        "Mean Anomaly(deg)": 74.98457901923415,
        "RAAN(deg)": 254.99111550100562,
        "Satellite Name": "Constellation 1 1126",
        "Satellite Number": 1126,
        "Semi-Major Axis(m)": 7083131.272910544,
        "Time(s)": 157
    },
    {
        "Altitude(m)": 706877.7415841811,
        "Argument of Periapsis(deg)": 0.009471784986774088,
        "Eccentricity": 0.0,
        "Inclination(deg)": 45.0,
        "Latitude(deg)": 43.24324391840487,
        "Longitude(deg)": -136.34007550556802,
        "Mean Anomaly(deg)": 75.04528015948404,
        "RAAN(deg)": 254.99105891184,
        "Satellite Name": "Constellation 1 1126",
        "Satellite Number": 1126,
        "Semi-Major Axis(m)": 7083131.272910544,
        "Time(s)": 158
    },
    {
        "Altitude(m)": 706881.1342669551,
        "Argument of Periapsis(deg)": 0.009531732993019492,
        "Eccentricity": 0.0,
        "Inclination(deg)": 45.0,
        "Latitude(deg)": 43.25842493299637,
        "Longitude(deg)": -136.26364443604825,
        "Mean Anomaly(deg)": 75.10598129973391,
        "RAAN(deg)": 254.99100232267443,
        "Satellite Name": "Constellation 1 1126",
        "Satellite Number": 1126,
        "Semi-Major Axis(m)": 7083131.272910544,
        "Time(s)": 159
    },
    {
        "Altitude(m)": 706884.5148201714,
        "Argument of Periapsis(deg)": 0.009591680999264898,
        "Eccentricity": 0.0,
        "Inclination(deg)": 45.0,
        "Latitude(deg)": 43.273549196766126,
        "Longitude(deg)": -136.18717344228463,
        "Mean Anomaly(deg)": 75.1666824399838,
        "RAAN(deg)": 254.99094573350888,
        "Satellite Name": "Constellation 1 1126",
        "Satellite Number": 1126,
        "Semi-Major Axis(m)": 7083131.272910544,
        "Time(s)": 160
    },
    {
        "Altitude(m)": 706887.8832238656,
        "Argument of Periapsis(deg)": 0.009651629005510304,
        "Eccentricity": 0.0,
        "Inclination(deg)": 45.0,
        "Latitude(deg)": 43.28861665216792,
        "Longitude(deg)": -136.1106626330678,
        "Mean Anomaly(deg)": 75.22738358023373,
        "RAAN(deg)": 254.99088914434333,
        "Satellite Name": "Constellation 1 1126",
        "Satellite Number": 1126,
        "Semi-Major Axis(m)": 7083131.272910544,
        "Time(s)": 161
    },
    {
        "Altitude(m)": 706891.239458143,
        "Argument of Periapsis(deg)": 0.00971157701175571,
        "Eccentricity": 0.0,
        "Inclination(deg)": 45.0,
        "Latitude(deg)": 43.30362724179951,
        "Longitude(deg)": -136.03411211774838,
        "Mean Anomaly(deg)": 75.28808472048362,
        "RAAN(deg)": 254.99083255517778,
        "Satellite Name": "Constellation 1 1126",
        "Satellite Number": 1126,
        "Semi-Major Axis(m)": 7083131.272910544,
        "Time(s)": 162
    },
    {
        "Altitude(m)": 706894.5835031962,
        "Argument of Periapsis(deg)": 0.009771525018001118,
        "Eccentricity": 0.0,
        "Inclination(deg)": 45.0,
        "Latitude(deg)": 43.3185809084037,
        "Longitude(deg)": -135.9575221743342,
        "Mean Anomaly(deg)": 75.34878586073351,
        "RAAN(deg)": 254.99077596601217,
        "Satellite Name": "Constellation 1 1126",
        "Satellite Number": 1126,
        "Semi-Major Axis(m)": 7083131.272910544,
        "Time(s)": 163
    },
    {
        "Altitude(m)": 706897.9153392714,
        "Argument of Periapsis(deg)": 0.00983147302424652,
        "Eccentricity": 0.0,
        "Inclination(deg)": 45.0,
        "Latitude(deg)": 43.33347759486844,
        "Longitude(deg)": -135.88089257710132,
        "Mean Anomaly(deg)": 75.40948700098346,
        "RAAN(deg)": 254.9907193768466,
        "Satellite Name": "Constellation 1 1126",
        "Satellite Number": 1126,
        "Semi-Major Axis(m)": 7083131.272910544,
        "Time(s)": 164
    },
    {
        "Altitude(m)": 706901.2349467092,
        "Argument of Periapsis(deg)": 0.009891421030491928,
        "Eccentricity": 0.0,
        "Inclination(deg)": 45.0,
        "Latitude(deg)": 43.34831724422892,
        "Longitude(deg)": -135.80422360517608,
        "Mean Anomaly(deg)": 75.47018814123334,
        "RAAN(deg)": 254.99066278768106,
        "Satellite Name": "Constellation 1 1126",
        "Satellite Number": 1126,
        "Semi-Major Axis(m)": 7083131.272910544,
        "Time(s)": 165
    },
    {
        "Altitude(m)": 706904.5423059075,
        "Argument of Periapsis(deg)": 0.009951369036737332,
        "Eccentricity": 0.0,
        "Inclination(deg)": 45.0,
        "Latitude(deg)": 43.36309979966787,
        "Longitude(deg)": -135.7275153701457,
        "Mean Anomaly(deg)": 75.53088928148323,
        "RAAN(deg)": 254.99060619851548,
        "Satellite Name": "Constellation 1 1126",
        "Satellite Number": 1126,
        "Semi-Major Axis(m)": 7083131.272910544,
        "Time(s)": 166
    },
    {
        "Altitude(m)": 706907.8373973562,
        "Argument of Periapsis(deg)": 0.010011317042982738,
        "Eccentricity": 0.0,
        "Inclination(deg)": 45.0,
        "Latitude(deg)": 43.3778252045165,
        "Longitude(deg)": -135.65076798415583,
        "Mean Anomaly(deg)": 75.59159042173312,
        "RAAN(deg)": 254.99054960934993,
        "Satellite Name": "Constellation 1 1126",
        "Satellite Number": 1126,
        "Semi-Major Axis(m)": 7083131.272910544,
        "Time(s)": 167
    },
    {
        "Altitude(m)": 706911.1202015975,
        "Argument of Periapsis(deg)": 0.010071265049228144,
        "Eccentricity": 0.0,
        "Inclination(deg)": 45.0,
        "Latitude(deg)": 43.392493402255376,
        "Longitude(deg)": -135.57398155990978,
        "Mean Anomaly(deg)": 75.65229156198305,
        "RAAN(deg)": 254.99049302018432,
        "Satellite Name": "Constellation 1 1126",
        "Satellite Number": 1126,
        "Semi-Major Axis(m)": 7083131.272910544,
        "Time(s)": 168
    },
    {
        "Altitude(m)": 706914.3906992743,
        "Argument of Periapsis(deg)": 0.01013121305547355,
        "Eccentricity": 0.0,
        "Inclination(deg)": 45.0,
        "Latitude(deg)": 43.40710433651553,
        "Longitude(deg)": -135.49715621066733,
        "Mean Anomaly(deg)": 75.71299270223294,
        "RAAN(deg)": 254.99043643101876,
        "Satellite Name": "Constellation 1 1126",
        "Satellite Number": 1126,
        "Semi-Major Axis(m)": 7083131.272910544,
        "Time(s)": 169
    },
    {
        "Altitude(m)": 706917.6488710814,
        "Argument of Periapsis(deg)": 0.010191161061718957,
        "Eccentricity": 0.0,
        "Inclination(deg)": 45.0,
        "Latitude(deg)": 43.42165795107917,
        "Longitude(deg)": -135.4202920502452,
        "Mean Anomaly(deg)": 75.77369384248281,
        "RAAN(deg)": 254.9903798418532,
        "Satellite Name": "Constellation 1 1126",
        "Satellite Number": 1126,
        "Semi-Major Axis(m)": 7083131.272910544,
        "Time(s)": 170
    }
]